[{"OBJECT_NAME":"STARLINK-4384","OBJECT_ID":"2022-084AF","EPOCH":"2026-03-09T17:41:43.247040","MEAN_MOTION":15.05639874,"ECCENTRICITY":0.00012328,"INCLINATION":97.6036,"RA_OF_ASC_NODE":131.3326,"ARG_OF_PERICENTER":70.6402,"MEAN_ANOMALY":289.4958,"EPHEMERIS_TYPE":0,"CLASSIFICATION_TYPE":"U","NORAD_CAT_ID":53218,"ELEMENT_SET_NO":999,"REV_AT_EPOCH":19991,"BSTAR":-5.431446e-6,"MEAN_MOTION_DOT":-1.39e-6,"MEAN_MOTION_DDOT":0},{"OBJECT_NAME":"IRIDIUM 33 DEB","OBJECT_ID":"1997-051ABJ","EPOCH":"2026-03-07T11:02:11.153184","MEAN_MOTION":15.04355632,"ECCENTRICITY":0.00105712,"INCLINATION":86.348,"RA_OF_ASC_NODE":321.5871,"ARG_OF_PERICENTER":86.7515,"MEAN_ANOMALY":38.318,"EPHEMERIS_TYPE":0,"CLASSIFICATION_TYPE":"U","NORAD_CAT_ID":40996,"ELEMENT_SET_NO":999,"REV_AT_EPOCH":63758,"BSTAR":0.0045408492,"MEAN_MOTION_DOT":0.00063892,"MEAN_MOTION_DDOT":0}]
